{
  "type": "FeatureCollection",
  "features": [
    {
      "type": "Feature",
      "properties": {"id": "Province_A"},
      "geometry": {
        "type": "Polygon",
        "coordinates": [[[0,0],[1,0],[1,1],[0,1],[0,0]]]
      }
    },
    {
      "type": "Feature",
      "properties": {"id": "Province_B"},
      "geometry": {
        "type": "Polygon",
        "coordinates": [[[1,0],[2,0],[2,1],[1,1],[1,0]]]
      }
    },
    {
      "type": "Feature",
      "properties": {"id": "Province_C"},
      "geometry": {
        "type": "Polygon",
        "coordinates": [[[2,0],[3,0],[3,1],[2,1],[2,0]]]
      }
    },
    {
      "type": "Feature",
      "properties": {"id": "Province_D"},
      "geometry": {
        "type": "Polygon",
        "coordinates": [[[3,0],[4,0],[4,1],[3,1],[3,0]]]
      }
    },
    {
      "type": "Feature",
      "properties": {"id": "Province_E"},
      "geometry": {
        "type": "Polygon",
        "coordinates": [[[4,0],[5,0],[5,1],[4,1],[4,0]]]
      }
    }
  ]
}
